[{"OBJECT_NAME":"STARLINK-3244","OBJECT_ID":"2021-115T","EPOCH":"2026-03-09T11:38:00.402432","MEAN_MOTION":15.08838653,"ECCENTRICITY":0.00015251,"INCLINATION":53.2179,"RA_OF_ASC_NODE":150.0538,"ARG_OF_PERICENTER":82.8831,"MEAN_ANOMALY":277.2335,"EPHEMERIS_TYPE":0,"CLASSIFICATION_TYPE":"U","NORAD_CAT_ID":49741,"ELEMENT_SET_NO":999,"REV_AT_EPOCH":23550,"BSTAR":-2.9319888e-5,"MEAN_MOTION_DOT":-7.55e-6,"MEAN_MOTION_DDOT":0},{"OBJECT_NAME":"JILIN-1 KUANFU 01C","OBJECT_ID":"2022-048A","EPOCH":"2026-03-09T22:44:12.026688","MEAN_MOTION":15.09601076,"ECCENTRICITY":0.00140886,"INCLINATION":97.5312,"RA_OF_ASC_NODE":147.8831,"ARG_OF_PERICENTER":308.8335,"MEAN_ANOMALY":51.1636,"EPHEMERIS_TYPE":0,"CLASSIFICATION_TYPE":"U","NORAD_CAT_ID":52443,"ELEMENT_SET_NO":999,"REV_AT_EPOCH":21222,"BSTAR":0.00028577595,"MEAN_MOTION_DOT":4.539e-5,"MEAN_MOTION_DDOT":0}]
